NORAD_CAT_ID,OBJECT_NAME,OBJECT_TYPE,EPOCH,MEAN_MOTION,ECCENTRICITY,INCLINATION,RA_OF_ASC_NODE,ARG_OF_PERICENTER,MEAN_ANOMALY,BSTAR,MEAN_MOTION_DOT,MEAN_MOTION_DDOT,TLE_LINE0,TLE_LINE1,TLE_LINE2,SEMIMAJOR_AXIS,PERIOD,APOGEE,PERIGEE,DECAYED
54098.0,STARLINK-5217,PAYLOAD,2024-01-01 03:05:01,15.0883664,0.0001489,53.218,318.6337,88.5746,271.5416,3.9089e-05,3.34e-06,0.0,0 STARLINK-5217,1 54098U 22136AZ  24001.12848799  .00000334  00000-0  39089-4 0  9998,2 54098  53.2180 318.6337 0001489  88.5746 271.5416 15.08836640 66906,6917.891,95.438,540.786,538.726,0.0
54098.0,STARLINK-5217,PAYLOAD,2024-01-01 06:15:47,15.08841018,0.0001524,53.2183,318.037,86.1172,273.9994,7.3764e-05,8.86e-06,0.0,0 STARLINK-5217,1 54098U 22136AZ  24001.26096500  .00000886  00000-0  73764-4 0  9998,2 54098  53.2183 318.0370 0001524  86.1172 273.9994 15.08841018 66459,6917.877,95.437,540.797,538.688,0.0
54098.0,STARLINK-5217,PAYLOAD,2024-01-01 20:34:15,15.08842496,0.0001453,53.2176,315.3646,101.6857,258.4298,0.00010974,1.459e-05,0.0,0 STARLINK-5217,1 54098U 22136AZ  24001.85712222  .00001459  00000-0  10974-3 0  9999,2 54098  53.2176 315.3646 0001453 101.6857 258.4298 15.08842496 67010,6917.873,95.437,540.743,538.733,0.0
54098.0,STARLINK-5217,PAYLOAD,2024-01-02 02:55:47,15.08850787,0.0001636,53.2177,314.178,78.9435,281.1741,0.00015824,2.232e-05,0.0,0 STARLINK-5217,1 54098U 22136AZ  24002.12207703  .00002232  00000-0  15824-3 0  9992,2 54098  53.2177 314.1780 0001636  78.9435 281.1741 15.08850787 67050,6917.847,95.437,540.844,538.581,0.0
54098.0,STARLINK-5217,PAYLOAD,2024-01-02 06:06:33,15.08858309,0.0001536,53.2175,313.581,92.1572,267.9596,0.00022355,3.273e-05,0.0,0 STARLINK-5217,1 54098U 22136AZ  24002.25454993  .00003273  00000-0  22355-3 0  9994,2 54098  53.2175 313.5810 0001536  92.1572 267.9596 15.08858309 67074,6917.824,95.436,540.752,538.627,0.0
54098.0,STARLINK-5217,PAYLOAD,2024-01-02 20:25:02,15.08844569,0.000152,53.2183,310.9076,84.3801,275.7364,6.9132e-05,8.13e-06,0.0,0 STARLINK-5217,1 54098U 22136AZ  24002.85072228  .00000813  00000-0  69132-4 0  9999,2 54098  53.2183 310.9076 0001520  84.3801 275.7364 15.08844569 67162,6917.866,95.437,540.783,538.68,0.0
54098.0,STARLINK-5217,PAYLOAD,2024-01-03 05:57:20,15.08847415,0.0001452,53.2178,309.121,92.7615,267.3543,8.5179e-05,1.068e-05,0.0,0 STARLINK-5217,1 54098U 22136AZ  24003.24815788  .00001068  00000-0  85179-4 0  9991,2 54098  53.2178 309.1210 0001452  92.7615 267.3543 15.08847415 66759,6917.858,95.437,540.727,538.718,0.0
54098.0,STARLINK-5217,PAYLOAD,2024-01-04 02:37:22,15.08842133,0.0001713,53.2182,305.2541,111.3752,248.7423,-7.912e-05,-1.547e-05,0.0,0 STARLINK-5217,1 54098U 22136AZ  24004.10928392 -.00001547  00000-0 -79120-4 0  9996,2 54098  53.2182 305.2541 0001713 111.3752 248.7423 15.08842133 67357,6917.874,95.437,540.924,538.554,0.0
54098.0,STARLINK-5217,PAYLOAD,2024-01-05 05:38:55,15.08843768,0.0001449,53.2175,300.1985,110.8891,249.2256,7.2935e-05,8.73e-06,0.0,0 STARLINK-5217,1 54098U 22136AZ  24005.23535895  .00000873  00000-0  72935-4 0  9999,2 54098  53.2175 300.1985 0001449 110.8891 249.2256 15.08843768 67523,6917.869,95.437,540.736,538.731,0.0
54098.0,STARLINK-5217,PAYLOAD,2024-01-06 02:18:56,15.08836562,0.0001315,53.217,296.3301,96.7167,263.3975,6.1092e-05,6.84e-06,0.0,0 STARLINK-5217,1 54098U 22136AZ  24006.09648716  .00000684  00000-0  61092-4 0  9993,2 54098  53.2170 296.3301 0001315  96.7167 263.3975 15.08836562 67659,6917.891,95.438,540.666,538.846,0.0
54098.0,STARLINK-5217,PAYLOAD,2024-01-07 00:34:20,15.08836598,0.0001367,53.2171,292.1671,100.4001,259.7145,0.0001113,1.484e-05,0.0,0 STARLINK-5217,1 54098U 22136AZ  24007.02384719  .00001484  00000-0  11130-3 0  9993,2 54098  53.2171 292.1671 0001367 100.4001 259.7145 15.08836598 67322,6917.891,95.438,540.701,538.81,0.0
54098.0,STARLINK-5217,PAYLOAD,2024-01-07 22:49:44,15.08838376,0.0001306,53.2172,288.0081,94.425,265.6892,7.2074e-05,8.59e-06,0.0,0 STARLINK-5217,1 54098U 22136AZ  24007.95120973  .00000859  00000-0  72074-4 0  9995,2 54098  53.2172 288.0081 0001306  94.4250 265.6892 15.08838376 67469,6917.885,95.438,540.654,538.847,0.0
54098.0,STARLINK-5217,PAYLOAD,2024-01-08 03:35:53,15.08840821,0.0001302,53.217,287.1156,90.1542,269.9599,8.7678e-05,1.108e-05,0.0,0 STARLINK-5217,1 54098U 22136AZ  24008.14992806  .00001108  00000-0  87678-4 0  9993,2 54098  53.2170 287.1156 0001302  90.1542 269.9599 15.08840821 67967,6917.878,95.438,540.644,538.842,0.0
54098.0,STARLINK-5217,PAYLOAD,2024-01-08 22:40:31,15.08838531,0.0001355,53.2168,283.5468,87.9196,272.1951,5.9073e-05,6.52e-06,0.0,0 STARLINK-5217,1 54098U 22136AZ  24008.94481146  .00000652  00000-0  59073-4 0  9992,2 54098  53.2168 283.5468 0001355  87.9196 272.1951 15.08838531 67612,6917.885,95.438,540.687,538.813,0.0
54098.0,STARLINK-5217,PAYLOAD,2024-01-09 01:51:18,15.08811181,0.0001768,53.2182,282.9552,77.2465,282.8725,0.0005542,8.536e-05,0.0,0 STARLINK-5217,1 54098U 22136AZ  24009.07729659  .00008536  00000-0  55420-3 0  9991,2 54098  53.2182 282.9552 0001768  77.2465 282.8725 15.08811181 68108,6917.968,95.439,541.057,538.61,0.0
54098.0,STARLINK-5217,PAYLOAD,2024-01-09 17:45:09,15.08839062,0.0001693,53.2168,279.9846,70.2843,289.8332,0.00012707,1.735e-05,0.0,0 STARLINK-5217,1 54098U 22136AZ  24009.73969097  .00001735  00000-0  12707-3 0  9991,2 54098  53.2168 279.9846 0001693  70.2843 289.8332 15.08839062 68204,6917.883,95.438,540.919,538.577,0.0
54098.0,STARLINK-5217,PAYLOAD,2024-01-09 22:31:18,15.08843243,0.0001414,53.2161,279.0889,82.1676,277.9477,5.1335e-05,5.29e-06,0.0,0 STARLINK-5217,1 54098U 22136AZ  24009.93840980  .00000529  00000-0  51335-4 0  9993,2 54098  53.2161 279.0889 0001414  82.1676 277.9477 15.08843243 67766,6917.87,95.437,540.714,538.757,0.0
54098.0,STARLINK-5217,PAYLOAD,2024-01-10 03:17:27,15.08848878,0.0001441,53.2165,278.195,91.1641,268.9516,0.00011942,1.614e-05,0.0,0 STARLINK-5217,1 54098U 22136AZ  24010.13712331  .00001614  00000-0  11942-3 0  9990,2 54098  53.2165 278.1950 0001441  91.1641 268.9516 15.08848878 68260,6917.853,95.437,540.715,538.721,0.0
54098.0,STARLINK-5217,PAYLOAD,2024-01-10 17:35:56,15.08840946,0.0001723,53.2187,275.5128,116.2316,243.8853,-3.2474e-05,-8.05e-06,0.0,0 STARLINK-5217,1 54098U 22136AZ  24010.73329294 -.00000805  00000-0 -32474-4 0  9995,2 54098  53.2187 275.5128 0001723 116.2316 243.8853 15.08840946 68357,6917.877,95.437,540.934,538.551,0.0
54098.0,STARLINK-5217,PAYLOAD,2024-01-11 03:08:14,15.08847097,0.0001693,53.2163,273.735,90.7817,269.3369,0.00010588,1.398e-05,0.0,0 STARLINK-5217,1 54098U 22136AZ  24011.13072662  .00001398  00000-0  10588-3 0  9991,2 54098  53.2163 273.7350 0001693  90.7817 269.3369 15.08847097 68412,6917.859,95.437,540.895,538.553,0.0
54098.0,STARLINK-5217,PAYLOAD,2024-01-11 22:12:52,15.08844636,0.00016,53.2164,270.1637,112.3638,247.7523,2.9832e-05,1.87e-06,0.0,0 STARLINK-5217,1 54098U 22136AZ  24011.92560801  .00000187  00000-0  29832-4 0  9993,2 54098  53.2164 270.1637 0001600 112.3638 247.7523 15.08844636 68061,6917.866,95.437,540.838,538.624,0.0
54098.0,STARLINK-5217,PAYLOAD,2024-01-12 02:59:01,15.08848734,0.0001654,53.2168,269.2696,115.759,244.3573,2.661e-05,1.36e-06,0.0,0 STARLINK-5217,1 54098U 22136AZ  24012.12432517  .00000136  00000-0  26610-4 0  9993,2 54098  53.2168 269.2696 0001654 115.7590 244.3573 15.08848734 68568,6917.854,95.437,540.863,538.574,0.0
54098.0,STARLINK-5217,PAYLOAD,2024-01-12 22:03:38,15.08836099,0.0001144,53.2153,265.7039,86.5269,273.5854,-0.00016721,-2.948e-05,0.0,0 STARLINK-5217,1 54098U 22136AZ  24012.91919973 -.00002948  00000-0 -16721-3 0  9992,2 54098  53.2153 265.7039 0001144  86.5269 273.5854 15.08836099 68215,6917.892,95.438,540.549,538.966,0.0
54098.0,STARLINK-5217,PAYLOAD,2024-01-12 23:39:02,15.0883495,0.0001199,53.2152,265.406,89.883,270.23,-0.00019079,-3.323e-05,0.0,0 STARLINK-5217,1 54098U 22136AZ  24012.98544006 -.00003323  00000-0 -19079-3 0  9997,2 54098  53.2152 265.4060 0001199  89.8830 270.2300 15.08834950 68691,6917.896,95.438,540.59,538.931,0.0
54098.0,STARLINK-5217,PAYLOAD,2024-01-14 02:40:35,15.0883465,0.0001262,53.2154,260.3519,85.7307,274.3829,-0.00017632,-3.092e-05,0.0,0 STARLINK-5217,1 54098U 22136AZ  24014.11152461 -.00003092  00000-0 -17632-3 0  9990,2 54098  53.2154 260.3519 0001262  85.7307 274.3829 15.08834650 68868,6917.897,95.438,540.635,538.889,0.0
54098.0,STARLINK-5217,PAYLOAD,2024-01-14 21:45:14,15.08828368,0.0001372,53.2153,256.783,77.2452,282.8694,0.00031485,4.725e-05,0.0,0 STARLINK-5217,1 54098U 22136AZ  24014.90641455  .00004725  00000-0  31485-3 0  9997,2 54098  53.2153 256.7830 0001372  77.2452 282.8694 15.08828368 68516,6917.916,95.438,540.73,538.832,0.0
54098.0,STARLINK-5217,PAYLOAD,2024-01-15 00:56:00,15.08834939,0.0001498,53.216,256.1879,84.2218,275.8945,0.00070187,0.00010898,0.0,0 STARLINK-5217,1 54098U 22136AZ  24015.03889575  .00010898  00000-0  70187-3 0  9999,2 54098  53.2160 256.1879 0001498  84.2218 275.8945 15.08834939 68532,6917.896,95.438,540.797,538.725,0.0
54098.0,STARLINK-5217,PAYLOAD,2024-01-15 20:00:38,15.088314,0.0001568,53.215,252.6226,121.8419,238.2726,9.2088e-05,1.178e-05,0.0,0 STARLINK-5217,1 54098U 22136AZ  24015.83377658  .00001178  00000-0  92088-4 0  9997,2 54098  53.2150 252.6226 0001568 121.8419 238.2726 15.08831400 68650,6917.907,95.438,540.856,538.687,0.0
54098.0,STARLINK-5217,PAYLOAD,2024-01-16 02:22:11,15.08813068,0.0001314,53.2154,251.4314,99.9449,260.1691,-0.00023567,-4.034e-05,0.0,0 STARLINK-5217,1 54098U 22136AZ  24016.09874808 -.00004034  00000-0 -23567-3 0  9996,2 54098  53.2154 251.4314 0001314  99.9449 260.1691 15.08813068 69168,6917.963,95.439,540.737,538.919,0.0
54098.0,STARLINK-5217,PAYLOAD,2024-01-16 19:51:26,15.08824497,0.0001287,53.2139,248.1629,132.7224,227.3876,0.00010009,1.305e-05,0.0,0 STARLINK-5217,1 54098U 22136AZ  24016.82739175  .00001305  00000-0  10009-3 0  9997,2 54098  53.2139 248.1629 0001287 132.7224 227.3876 15.08824497 69279,6917.928,95.439,540.683,538.902,0.0
